ORBCOMM FM24            
1 25478U 98053D   25344.79877862  .00002056  00000+0  71059-3 0  9990
2 25478  45.0052 151.3921 0001965  59.7848 300.3194 14.38644575422878
ORBCOMM FM25            
1 25479U 98053E   25344.63488735  .00001920  00000+0  66723-3 0  9992
2 25479  45.0045 150.4676 0004341  61.3382 298.7903 14.38612702423147
ORBCOMM FM26            
1 25480U 98053F   25344.76618420  .00001560  00000+0  56198-3 0  9999
2 25480  45.0047 147.6213 0006348  75.4476 284.7076 14.37587835423058
ORBCOMM FM27            
1 25481U 98053G   25344.75745234  .00001981  00000+0  68639-3 0  9993
2 25481  45.0029 150.0209 0001014 107.4510 252.6450 14.38646692423094
ORBCOMM FM28            
1 25482U 98053H   25344.70569279  .00001990  00000+0  68745-3 0  9990
2 25482  45.0048  87.5459 0004250 128.2190 231.9041 14.38779570423770
ORBCOMM FM30            
1 25980U 99065A   25344.66645937  .00001787  00000+0  63507-3 0  9993
2 25980  45.0317 334.1220 0005938 194.3791 165.6889 14.37756830359846
ORBCOMM FM31            
1 25981U 99065B   25344.64797132  .00001643  00000+0  58830-3 0  9991
2 25981  45.0239 327.6634 0004454 229.6007 130.4453 14.37683790359391
ORBCOMM FM32            
1 25982U 99065C   25344.74146800  .00001759  00000+0  63831-3 0  9998
2 25982  45.0161 344.9791 0006756 214.9669 145.0736 14.36741894359980
